{
  "type": "FeatureCollection",
  "features": [
    {
      "type": "Feature",
      "properties": {
        "norad_id": 40069,
        "name": "METEOR-M 2",
        "group": "weather",
        "lat": -14.600189051433878,
        "lon": -42.37593934847632,
        "alt_km": 826.1420255785788,
        "timestamp": "2025-12-03T10:52:57.090043+00:00",
        "meta_object_name": "METEOR-M 2",
        "meta_object_id": "2014-037A",
        "meta_epoch": "2025-12-03T04:11:38.444064",
        "meta_mean_motion": 14.21380412,
        "meta_eccentricity": 0.0004698,
        "meta_inclination": 98.4892,
        "meta_ra_of_asc_node": 315.1265,
        "meta_arg_of_pericenter": 241.7728,
        "meta_mean_anomaly": 118.2976,
        "meta_ephemeris_type": 0,
        "meta_classification_type": "U",
        "meta_norad_cat_id": 40069,
        "meta_element_set_no": 999,
        "meta_rev_at_epoch": 59147,
        "meta_bstar": 0.00011863,
        "meta_mean_motion_dot": 2.17e-06,
        "meta_mean_motion_ddot": 0,
        "tle_line1": "1 40069U 14037A   25337.17475051  .00000217  00000+0  11863-3 0  9995",
        "tle_line2": "2 40069  98.4892 315.1265 0004698 241.7728 118.2976 14.21380412591478"
      },
      "geometry": {
        "type": "Point",
        "coordinates": [
          -42.37593934847632,
          -14.600189051433878
        ]
      }
    },
    {
      "type": "Feature",
      "properties": {
        "norad_id": 40267,
        "name": "HIMAWARI-8",
        "group": "weather",
        "lat": 0.009500745041967268,
        "lon": 16.452885224779997,
        "alt_km": 35786.3661303996,
        "timestamp": "2025-12-03T10:52:57.090055+00:00",
        "meta_object_name": "HIMAWARI-8",
        "meta_object_id": "2014-060A",
        "meta_epoch": "2025-12-02T23:00:50.859072",
        "meta_mean_motion": 1.00271223,
        "meta_eccentricity": 0.0001367,
        "meta_inclination": 0.0359,
        "meta_ra_of_asc_node": 138.8337,
        "meta_arg_of_pericenter": 147.1555,
        "meta_mean_anomaly": 271.9612,
        "meta_ephemeris_type": 0,
        "meta_classification_type": "U",
        "meta_norad_cat_id": 40267,
        "meta_element_set_no": 999,
        "meta_rev_at_epoch": 4079,
        "meta_bstar": 0,
        "meta_mean_motion_dot": -2.56e-06,
        "meta_mean_motion_ddot": 0,
        "tle_line1": "1 40267U 14060A   25336.95892198 -.00000256  00000+0  00000+0 0  9992",
        "tle_line2": "2 40267   0.0359 138.8337 0001367 147.1555 271.9612  1.00271223 40792"
      },
      "geometry": {
        "type": "Point",
        "coordinates": [
          16.452885224779997,
          0.009500745041967268
        ]
      }
    },
    {
      "type": "Feature",
      "properties": {
        "norad_id": 40367,
        "name": "FENGYUN 2G",
        "group": "weather",
        "lat": -5.065888314731553,
        "lon": -24.525015253213276,
        "alt_km": 35782.91032317815,
        "timestamp": "2025-12-03T10:52:57.090067+00:00",
        "meta_object_name": "FENGYUN 2G",
        "meta_object_id": "2014-090A",
        "meta_epoch": "2025-12-02T19:23:41.667360",
        "meta_mean_motion": 1.00267744,
        "meta_eccentricity": 0.0003067,
        "meta_inclination": 5.141,
        "meta_ra_of_asc_node": 75.2124,
        "meta_arg_of_pericenter": 193.3464,
        "meta_mean_anomaly": 193.9973,
        "meta_ephemeris_type": 0,
        "meta_classification_type": "U",
        "meta_norad_cat_id": 40367,
        "meta_element_set_no": 999,
        "meta_rev_at_epoch": 4003,
        "meta_bstar": 0,
        "meta_mean_motion_dot": -2.84e-06,
        "meta_mean_motion_ddot": 0,
        "tle_line1": "1 40367U 14090A   25336.80812115 -.00000284  00000+0  00000+0 0  9992",
        "tle_line2": "2 40367   5.1410  75.2124 0003067 193.3464 193.9973  1.00267744 40039"
      },
      "geometry": {
        "type": "Point",
        "coordinates": [
          -24.525015253213276,
          -5.065888314731553
        ]
      }
    },
    {
      "type": "Feature",
      "properties": {
        "norad_id": 40732,
        "name": "METEOSAT-11 (MSG-4)",
        "group": "weather",
        "lat": 0.29518475774401354,
        "lon": -114.75879726909466,
        "alt_km": 35783.301001202155,
        "timestamp": "2025-12-03T10:52:57.090080+00:00",
        "meta_object_name": "METEOSAT-11 (MSG-4)",
        "meta_object_id": "2015-034A",
        "meta_epoch": "2025-12-03T01:48:51.610176",
        "meta_mean_motion": 1.00277693,
        "meta_eccentricity": 2.53e-05,
        "meta_inclination": 2.7114,
        "meta_ra_of_asc_node": 72.0263,
        "meta_arg_of_pericenter": 164.2285,
        "meta_mean_anomaly": 232.5958,
        "meta_ephemeris_type": 0,
        "meta_classification_type": "U",
        "meta_norad_cat_id": 40732,
        "meta_element_set_no": 999,
        "meta_rev_at_epoch": 525,
        "meta_bstar": 0,
        "meta_mean_motion_dot": 8.2e-07,
        "meta_mean_motion_ddot": 0,
        "tle_line1": "1 40732U 15034A   25337.07559734  .00000082  00000+0  00000+0 0  9997",
        "tle_line2": "2 40732   2.7114  72.0263 0000253 164.2285 232.5958  1.00277693  5252"
      },
      "geometry": {
        "type": "Point",
        "coordinates": [
          -114.75879726909466,
          0.29518475774401354
        ]
      }
    },
    {
      "type": "Feature",
      "properties": {
        "norad_id": 41105,
        "name": "ELEKTRO-L 2",
        "group": "weather",
        "lat": 3.2316462240084203,
        "lon": -138.64143752989617,
        "alt_km": 35775.09137539183,
        "timestamp": "2025-12-03T10:52:57.090092+00:00",
        "meta_object_name": "ELEKTRO-L 2",
        "meta_object_id": "2015-074A",
        "meta_epoch": "2025-12-03T01:42:07.255584",
        "meta_mean_motion": 1.00269824,
        "meta_eccentricity": 0.0003994,
        "meta_inclination": 6.1994,
        "meta_ra_of_asc_node": 72.9411,
        "meta_arg_of_pericenter": 197.267,
        "meta_mean_anomaly": 172.9677,
        "meta_ephemeris_type": 0,
        "meta_classification_type": "U",
        "meta_norad_cat_id": 41105,
        "meta_element_set_no": 999,
        "meta_rev_at_epoch": 3654,
        "meta_bstar": 0,
        "meta_mean_motion_dot": -1.01e-06,
        "meta_mean_motion_ddot": 0,
        "tle_line1": "1 41105U 15074A   25337.07091731 -.00000101  00000+0  00000+0 0  9997",
        "tle_line2": "2 41105   6.1994  72.9411 0003994 197.2670 172.9677  1.00269824 36542"
      },
      "geometry": {
        "type": "Point",
        "coordinates": [
          -138.64143752989617,
          3.2316462240084203
        ]
      }
    },
    {
      "type": "Feature",
      "properties": {
        "norad_id": 41752,
        "name": "INSAT-3DR",
        "group": "weather",
        "lat": -0.04739112892664374,
        "lon": -50.10520425241917,
        "alt_km": 35740.554816351876,
        "timestamp": "2025-12-03T10:52:57.090105+00:00",
        "meta_object_name": "INSAT-3DR",
        "meta_object_id": "2016-054A",
        "meta_epoch": "2025-12-03T03:50:06.371808",
        "meta_mean_motion": 1.00269574,
        "meta_eccentricity": 0.0014449,
        "meta_inclination": 0.067,
        "meta_ra_of_asc_node": 89.2297,
        "meta_arg_of_pericenter": 179.798,
        "meta_mean_anomaly": 294.785,
        "meta_ephemeris_type": 0,
        "meta_classification_type": "U",
        "meta_norad_cat_id": 41752,
        "meta_element_set_no": 999,
        "meta_rev_at_epoch": 3385,
        "meta_bstar": 0,
        "meta_mean_motion_dot": -5.8e-07,
        "meta_mean_motion_ddot": 0,
        "tle_line1": "1 41752U 16054A   25337.15979597 -.00000058  00000+0  00000+0 0  9999",
        "tle_line2": "2 41752   0.0670  89.2297 0014449 179.7980 294.7850  1.00269574 33852"
      },
      "geometry": {
        "type": "Point",
        "coordinates": [
          -50.10520425241917,
          -0.04739112892664374
        ]
      }
    },
    {
      "type": "Feature",
      "properties": {
        "norad_id": 41836,
        "name": "HIMAWARI-9",
        "group": "weather",
        "lat": 0.03219127156621177,
        "lon": 16.528692826117904,
        "alt_km": 35783.58229076038,
        "timestamp": "2025-12-03T10:52:57.090117+00:00",
        "meta_object_name": "HIMAWARI-9",
        "meta_object_id": "2016-064A",
        "meta_epoch": "2025-12-02T23:00:58.348224",
        "meta_mean_motion": 1.0027266,
        "meta_eccentricity": 0.0002418,
        "meta_inclination": 0.0194,
        "meta_ra_of_asc_node": 335.8786,
        "meta_arg_of_pericenter": 323.9867,
        "meta_mean_anomaly": 258.1785,
        "meta_ephemeris_type": 0,
        "meta_classification_type": "U",
        "meta_norad_cat_id": 41836,
        "meta_element_set_no": 999,
        "meta_rev_at_epoch": 3324,
        "meta_bstar": 0,
        "meta_mean_motion_dot": 0,
        "meta_mean_motion_ddot": 0,
        "tle_line1": "1 41836U 16064A   25336.95900866  .00000000  00000+0  00000+0 0  9999",
        "tle_line2": "2 41836   0.0194 335.8786 0002418 323.9867 258.1785  1.00272660 33243"
      },
      "geometry": {
        "type": "Point",
        "coordinates": [
          16.528692826117904,
          0.03219127156621177
        ]
      }
    }
  ]
}